start=new Date('2022-06-04T00:00:00.000Z').valueOf();
sats=[{"GP_ID":"205266837","OBJECT_TYPE":"PAYLOAD","CLASSIFICATION_TYPE":"U","CENTER_NAME":"EARTH","TIME_SYSTEM":"UTC","ARG_OF_PERICENTER":"34.5571","EPOCH":"2022-06-03T10:46:35.073120","DECAY_DATE":null,"SITE":"AFETR","APOAPSIS":"513.582","BSTAR":"-0.01061600000000","ECCENTRICITY":"0.00017540","EPHEMERIS_TYPE":"0","OBJECT_NAME":"STARLINK-3690","PERIOD":"94.872","ELEMENT_SET_NO":"999","COUNTRY_CODE":"US","INCLINATION":"53.2131","MEAN_ANOMALY":"325.5539","FILE":"3479192","TLE_LINE1":"1 51964U 22025J   22154.44901705 -.00211583  00000-0 -10616-1 0  9997","MEAN_ELEMENT_THEORY":"SGP4","REV_AT_EPOCH":"1358","SEMIMAJOR_AXIS":"6890.509","MEAN_MOTION_DOT":"-0.00211583","MEAN_MOTION":"15.17839458","OBJECT_ID":"2022-025J","PERIAPSIS":"511.165","MEAN_MOTION_DDOT":"0.0000000000000","TLE_LINE2":"2 51964  53.2131  82.9304 0001754  34.5571 325.5539 15.17839458 13580","RA_OF_ASC_NODE":"82.9304","REF_FRAME":"TEME","LAUNCH_DATE":"2022-03-09","RCS_SIZE":"LARGE","NORAD_CAT_ID":"51964"},{"SEMIMAJOR_AXIS":"6892.287","MEAN_MOTION_DOT":"-0.00210673","MEAN_MOTION":"15.17252103","OBJECT_ID":"2022-025K","PERIAPSIS":"511.762","MEAN_MOTION_DDOT":"0.0000000000000","TLE_LINE2":"2 51965  53.2124  82.6068 0003468  29.1969 330.9220 15.17252103 13596","RA_OF_ASC_NODE":"82.6068","REF_FRAME":"TEME","LAUNCH_DATE":"2022-03-09","RCS_SIZE":"LARGE","NORAD_CAT_ID":"51965","OBJECT_TYPE":"PAYLOAD","GP_ID":"205266526","CLASSIFICATION_TYPE":"U","CENTER_NAME":"EARTH","TIME_SYSTEM":"UTC","EPOCH":"2022-06-03T12:34:37.850016","ARG_OF_PERICENTER":"29.1969","DECAY_DATE":null,"SITE":"AFETR","APOAPSIS":"516.542","BSTAR":"-0.01074700000000","ECCENTRICITY":"0.00034680","EPHEMERIS_TYPE":"0","OBJECT_NAME":"STARLINK-3696","PERIOD":"94.908","ELEMENT_SET_NO":"999","COUNTRY_CODE":"US","INCLINATION":"53.2124","MEAN_ANOMALY":"330.9220","FILE":"3479192","TLE_LINE1":"1 51965U 22025K   22154.52404919 -.00210673  00000-0 -10747-1 0  9996","MEAN_ELEMENT_THEORY":"SGP4","REV_AT_EPOCH":"1359"},{"COUNTRY_CODE":"US","INCLINATION":"53.2138","MEAN_ANOMALY":"318.8317","PERIOD":"94.833","ELEMENT_SET_NO":"999","REV_AT_EPOCH":"1356","FILE":"3479192","TLE_LINE1":"1 51966U 22025L   22154.31132913 -.00200897  00000-0 -98873-2 0  9990","MEAN_ELEMENT_THEORY":"SGP4","GP_ID":"205266739","OBJECT_TYPE":"PAYLOAD","CLASSIFICATION_TYPE":"U","CENTER_NAME":"EARTH","DECAY_DATE":null,"SITE":"AFETR","APOAPSIS":"511.917","BSTAR":"-0.00988730000000","EPHEMERIS_TYPE":"0","ECCENTRICITY":"0.00020320","OBJECT_NAME":"STARLINK-3699","TIME_SYSTEM":"UTC","ARG_OF_PERICENTER":"41.2833","EPOCH":"2022-06-03T07:28:18.836832","LAUNCH_DATE":"2022-03-09","RCS_SIZE":"LARGE","REF_FRAME":"TEME","NORAD_CAT_ID":"51966","MEAN_MOTION_DOT":"-0.00200897","SEMIMAJOR_AXIS":"6888.652","MEAN_MOTION":"15.18453124","TLE_LINE2":"2 51966  53.2138  83.5574 0002032  41.2833 318.8317 15.18453124 13561","MEAN_MOTION_DDOT":"0.0000000000000","RA_OF_ASC_NODE":"83.5574","OBJECT_ID":"2022-025L","PERIAPSIS":"509.117"},{"CENTER_NAME":"EARTH","OBJECT_TYPE":"PAYLOAD","GP_ID":"205266296","CLASSIFICATION_TYPE":"U","EPHEMERIS_TYPE":"0","ECCENTRICITY":"0.00050590","OBJECT_NAME":"STARLINK-3695","DECAY_DATE":null,"APOAPSIS":"420.885","SITE":"AFETR","BSTAR":"0.00022902000000","ARG_OF_PERICENTER":"356.8329","EPOCH":"2022-06-03T02:14:31.655616","TIME_SYSTEM":"UTC","INCLINATION":"53.2128","MEAN_ANOMALY":"3.2648","COUNTRY_CODE":"US","PERIOD":"92.918","ELEMENT_SET_NO":"999","REV_AT_EPOCH":"1356","MEAN_ELEMENT_THEORY":"SGP4","FILE":"3479192","TLE_LINE1":"1 51967U 22025M   22154.09342194  .00012511  00000-0  22902-3 0  9993","SEMIMAJOR_AXIS":"6795.582","MEAN_MOTION":"15.49754167","MEAN_MOTION_DOT":"0.00012511","RA_OF_ASC_NODE":"82.0751","TLE_LINE2":"2 51967  53.2128  82.0751 0005059 356.8329   3.2648 15.49754167 13566","MEAN_MOTION_DDOT":"0.0000000000000","PERIAPSIS":"414.009","OBJECT_ID":"2022-025M","RCS_SIZE":"LARGE","LAUNCH_DATE":"2022-03-09","REF_FRAME":"TEME","NORAD_CAT_ID":"51967"},{"REF_FRAME":"TEME","LAUNCH_DATE":"2022-03-09","RCS_SIZE":"LARGE","NORAD_CAT_ID":"51968","MEAN_MOTION_DOT":"-0.00180448","SEMIMAJOR_AXIS":"6889.140","MEAN_MOTION":"15.18291888","OBJECT_ID":"2022-025N","PERIAPSIS":"508.875","MEAN_MOTION_DDOT":"0.0000000000000","TLE_LINE2":"2 51968  53.2138  82.6731 0003091  42.1557 317.9676 15.18291888 13595","RA_OF_ASC_NODE":"82.6731","ELEMENT_SET_NO":"999","PERIOD":"94.843","COUNTRY_CODE":"US","MEAN_ANOMALY":"317.9676","INCLINATION":"53.2138","TLE_LINE1":"1 51968U 22025N   22154.50597896 -.00180448  00000-0 -88949-2 0  9990","FILE":"3479192","MEAN_ELEMENT_THEORY":"SGP4","REV_AT_EPOCH":"1359","CLASSIFICATION_TYPE":"U","GP_ID":"205266501","OBJECT_TYPE":"PAYLOAD","CENTER_NAME":"EARTH","TIME_SYSTEM":"UTC","EPOCH":"2022-06-03T12:08:36.582144","ARG_OF_PERICENTER":"42.1557","SITE":"AFETR","DECAY_DATE":null,"BSTAR":"-0.00889490000000","APOAPSIS":"513.134","OBJECT_NAME":"STARLINK-3681","ECCENTRICITY":"0.00030910","EPHEMERIS_TYPE":"0"},{"MEAN_ELEMENT_THEORY":"SGP4","TLE_LINE1":"1 51969U 22025P   22154.51792524 -.00193983  00000-0 -97873-2 0  9991","FILE":"3479192","REV_AT_EPOCH":"1359","PERIOD":"94.889","ELEMENT_SET_NO":"999","INCLINATION":"53.2125","MEAN_ANOMALY":"303.4127","COUNTRY_CODE":"US","ARG_OF_PERICENTER":"56.7124","EPOCH":"2022-06-03T12:25:48.740736","TIME_SYSTEM":"UTC","ECCENTRICITY":"0.00026760","EPHEMERIS_TYPE":"0","OBJECT_NAME":"STARLINK-3680","DECAY_DATE":null,"APOAPSIS":"515.080","SITE":"AFETR","BSTAR":"-0.00978730000000","CENTER_NAME":"EARTH","OBJECT_TYPE":"PAYLOAD","GP_ID":"205266191","CLASSIFICATION_TYPE":"U","NORAD_CAT_ID":"51969","REF_FRAME":"TEME","RCS_SIZE":"LARGE","LAUNCH_DATE":"2022-03-09","PERIAPSIS":"511.391","OBJECT_ID":"2022-025P","RA_OF_ASC_NODE":"82.6206","MEAN_MOTION_DDOT":"0.0000000000000","TLE_LINE2":"2 51969  53.2125  82.6206 0002676  56.7124 303.4127 15.17554724 13599","SEMIMAJOR_AXIS":"6891.371","MEAN_MOTION_DOT":"-0.00193983","MEAN_MOTION":"15.17554724"},{"RCS_SIZE":"LARGE","LAUNCH_DATE":"2022-03-09","REF_FRAME":"TEME","NORAD_CAT_ID":"51970","SEMIMAJOR_AXIS":"6887.771","MEAN_MOTION_DOT":"-0.00192312","MEAN_MOTION":"15.18744615","RA_OF_ASC_NODE":"82.7026","MEAN_MOTION_DDOT":"0.0000000000000","TLE_LINE2":"2 51970  53.2162  82.7026 0003525  57.6688 302.4650 15.18744615 13593","PERIAPSIS":"507.208","OBJECT_ID":"2022-025Q","INCLINATION":"53.2162","MEAN_ANOMALY":"302.4650","COUNTRY_CODE":"US","PERIOD":"94.815","ELEMENT_SET_NO":"999","REV_AT_EPOCH":"1359","MEAN_ELEMENT_THEORY":"SGP4","FILE":"3479192","TLE_LINE1":"1 51970U 22025Q   22154.50006060 -.00192312  00000-0 -93719-2 0  9995","CENTER_NAME":"EARTH","OBJECT_TYPE":"PAYLOAD","GP_ID":"205266403","CLASSIFICATION_TYPE":"U","EPHEMERIS_TYPE":"0","ECCENTRICITY":"0.00035250","OBJECT_NAME":"STARLINK-3677","DECAY_DATE":null,"SITE":"AFETR","BSTAR":"-0.00937190000000","APOAPSIS":"512.064","ARG_OF_PERICENTER":"57.6688","EPOCH":"2022-06-03T12:00:05.235840","TIME_SYSTEM":"UTC"},{"PERIOD":"94.864","ELEMENT_SET_NO":"999","COUNTRY_CODE":"US","INCLINATION":"53.2140","MEAN_ANOMALY":"300.0406","FILE":"3479192","TLE_LINE1":"1 51971U 22025R   22154.51196851 -.00206074  00000-0 -10296-1 0  9994","MEAN_ELEMENT_THEORY":"SGP4","REV_AT_EPOCH":"1359","OBJECT_TYPE":"PAYLOAD","GP_ID":"205266632","CLASSIFICATION_TYPE":"U","CENTER_NAME":"EARTH","TIME_SYSTEM":"UTC","ARG_OF_PERICENTER":"60.0835","EPOCH":"2022-06-03T12:17:14.079264","SITE":"AFETR","DECAY_DATE":null,"BSTAR":"-0.01029600000000","APOAPSIS":"513.728","EPHEMERIS_TYPE":"0","ECCENTRICITY":"0.00024770","OBJECT_NAME":"STARLINK-3669","REF_FRAME":"TEME","LAUNCH_DATE":"2022-03-09","RCS_SIZE":"LARGE","NORAD_CAT_ID":"51971","SEMIMAJOR_AXIS":"6890.156","MEAN_MOTION_DOT":"-0.00206074","MEAN_MOTION":"15.17955978","OBJECT_ID":"2022-025R","PERIAPSIS":"510.314","TLE_LINE2":"2 51971  53.2140  82.6431 0002477  60.0835 300.0406 15.17955978 13594","MEAN_MOTION_DDOT":"0.0000000000000","RA_OF_ASC_NODE":"82.6431"},{"REF_FRAME":"TEME","LAUNCH_DATE":"2022-03-09","RCS_SIZE":"LARGE","NORAD_CAT_ID":"51972","SEMIMAJOR_AXIS":"6889.332","MEAN_MOTION_DOT":"-0.00214780","MEAN_MOTION":"15.18228211","OBJECT_ID":"2022-025S","PERIAPSIS":"510.677","TLE_LINE2":"2 51972  53.2158  80.9195 0000756 298.4275  61.6645 15.18228211 13651","MEAN_MOTION_DDOT":"0.0000000000000","RA_OF_ASC_NODE":"80.9195","ELEMENT_SET_NO":"999","PERIOD":"94.847","COUNTRY_CODE":"US","MEAN_ANOMALY":"61.6645","INCLINATION":"53.2158","FILE":"3479630","TLE_LINE1":"1 51972U 22025S   22154.89240055 -.00214780  00000-0 -10662-1 0  9992","MEAN_ELEMENT_THEORY":"SGP4","REV_AT_EPOCH":"1365","CLASSIFICATION_TYPE":"U","GP_ID":"205300460","OBJECT_TYPE":"PAYLOAD","CENTER_NAME":"EARTH","TIME_SYSTEM":"UTC","ARG_OF_PERICENTER":"298.4275","EPOCH":"2022-06-03T21:25:03.407520","SITE":"AFETR","DECAY_DATE":null,"APOAPSIS":"511.718","BSTAR":"-0.01066200000000","OBJECT_NAME":"STARLINK-3671","ECCENTRICITY":"0.00007560","EPHEMERIS_TYPE":"0"},{"PERIAPSIS":"507.799","OBJECT_ID":"2022-025T","RA_OF_ASC_NODE":"82.6880","TLE_LINE2":"2 51973  53.2153  82.6880 0003345  47.2295 312.8983 15.18590097 13599","MEAN_MOTION_DDOT":"0.0000000000000","SEMIMAJOR_AXIS":"6888.238","MEAN_MOTION":"15.18590097","MEAN_MOTION_DOT":"-0.00193469","NORAD_CAT_ID":"51973","REF_FRAME":"TEME","RCS_SIZE":"LARGE","LAUNCH_DATE":"2022-03-09","ARG_OF_PERICENTER":"47.2295","EPOCH":"2022-06-03T12:04:20.333568","TIME_SYSTEM":"UTC","OBJECT_NAME":"STARLINK-3679","ECCENTRICITY":"0.00033450","EPHEMERIS_TYPE":"0","SITE":"AFETR","DECAY_DATE":null,"APOAPSIS":"512.407","BSTAR":"-0.00947240000000","CENTER_NAME":"EARTH","CLASSIFICATION_TYPE":"U","OBJECT_TYPE":"PAYLOAD","GP_ID":"205266527","MEAN_ELEMENT_THEORY":"SGP4","FILE":"3479192","TLE_LINE1":"1 51973U 22025T   22154.50301312 -.00193469  00000-0 -94724-2 0  9997","REV_AT_EPOCH":"1359","ELEMENT_SET_NO":"999","PERIOD":"94.825","MEAN_ANOMALY":"312.8983","INCLINATION":"53.2153","COUNTRY_CODE":"US"}];
